0 DELTA 1 DEB
1 10823U 76077BT  13282.59971653 -.00000005  00000-0  27250-3 0  3676
2 10823 101.6179 316.8305 0044127 175.9814 310.7353 12.43373153687342
0 DELTA 1 DEB
1 10823U 76077BT  13286.63001718  .00000011  00000-0  38674-3 0  3691
2 10823 101.6170 320.7021 0044169 168.3974 350.8550 12.43373400687845
0 DELTA 1 DEB
1 10823U 76077BT  13289.09491080  .00000005  00000-0  33863-3 0  3709
2 10823 101.6162 323.0697 0044186 163.7830 223.9986 12.43373845688140
0 DELTA 1 DEB
1 10823U 76077BT  13292.32115951 -.00000011  00000-0  22617-3 0  3713
2 10823 101.6159 326.1680 0044192 157.7277 265.0751 12.43374327688544
0 DELTA 1 DEB
1 10823U 76077BT  13295.05542456 -.00000011  00000-0  22459-3 0  3725
2 10823 101.6158 328.7937 0044184 152.5943 263.9787 12.43374514688881
